{
  "norad_id": 58485,
  "name": "STARLINK-30979",
  "history": [
    {
      "epoch": "2026-03-28T21:52:12.743040Z",
      "apogee_km": 483.93849644677357,
      "perigee_km": 482.0750098034241,
      "latitude_deg": -4.121303414964115e-06,
      "longitude_deg": 160.90398621284172,
      "height_km": 482.75505030433055,
      "semi_major_axis_km": 6861.143753125099,
      "eccentricity": 0.0001358,
      "inclination_deg": 43.0005,
      "raan_deg": 315.282,
      "arg_perigee_deg": 271.7484,
      "mean_anomaly_deg": 88.3212,
      "mean_motion_rev_day": 15.27594141
    }
  ]
}